[{"OBJECT_NAME":"STARLINK-31670","OBJECT_ID":"2024-071G","EPOCH":"2026-03-09T03:57:07.843104","MEAN_MOTION":15.27554228,"ECCENTRICITY":4.127e-5,"INCLINATION":42.9994,"RA_OF_ASC_NODE":354.1263,"ARG_OF_PERICENTER":293.6576,"MEAN_ANOMALY":66.4232,"EPHEMERIS_TYPE":0,"CLASSIFICATION_TYPE":"U","NORAD_CAT_ID":59490,"ELEMENT_SET_NO":999,"REV_AT_EPOCH":10799,"BSTAR":5.7863457e-5,"MEAN_MOTION_DOT":1.33e-5,"MEAN_MOTION_DDOT":0},{"OBJECT_NAME":"SIMSAT 1","OBJECT_ID":"2000-026A","EPOCH":"2026-03-09T17:22:54.646176","MEAN_MOTION":15.27666538,"ECCENTRICITY":0.00084816,"INCLINATION":86.3501,"RA_OF_ASC_NODE":180.5413,"ARG_OF_PERICENTER":14.8337,"MEAN_ANOMALY":345.3157,"EPHEMERIS_TYPE":0,"CLASSIFICATION_TYPE":"U","NORAD_CAT_ID":26365,"ELEMENT_SET_NO":999,"REV_AT_EPOCH":42720,"BSTAR":0.00013499313,"MEAN_MOTION_DOT":3.69e-5,"MEAN_MOTION_DDOT":0}]
